SAUDISAT 1C             
1 27607U 02058C   19118.85094172 -.00000022  00000-0  17878-4 0  9993
2 27607  64.5551 205.0343 0082386 266.2109  92.9570 14.75539511879535
SAUDISAT 2              
1 28371U 04025F   19119.43949481 -.00000063  00000-0 -41076-5 0  9999
2 28371  98.2278  68.9121 0026961  35.1564 325.1405 14.54339190786857
SAUDISAT 3              
1 31118U 07012B   19119.51669977 -.00000017  00000-0  50206-5 0  9992
2 31118  97.8096  89.4587 0013856 248.7809 111.1907 14.69130082645040
PISAT                   
1 41784U 16059B   19119.14045056  .00000060  00000-0  20750-4 0  9995
2 41784  98.0735 180.4845 0032116 178.6507 181.4788 14.63420309138163
FLYING LAPTOP           
1 42831U 17042G   19119.19774415  .00000177  00000-0  23311-4 0  9990
2 42831  97.5705  14.2240 0012913 224.4864 135.5319 14.90983616 97417
